H1 CPF 01  gfz 2022 12 02 01  8361 terrasarx 
H2 0702601  6201 31698    2022 12 02 00 59 42 2022 12 07 00 00 42   120 1 1  0 0 0
H9
10 0 59916  82782.000000  0     612592.328   1109470.960  -6777489.461
10 0 59916  82902.000000  0     864308.350    228480.357  -6836799.370
10 0 59916  83022.000000  0    1085571.426   -660604.071  -6776882.865
10 0 59916  83142.000000  0    1272546.087  -1541820.479  -6598771.366
10 0 59916  83262.000000  0    1422262.707  -2399273.415  -6305528.730
10 0 59916  83382.000000  0    1532664.603  -3217413.407  -5902205.634
10 0 59916  83502.000000  0    1602635.613  -3981316.580  -5395763.211
10 0 59916  83622.000000  0    1632007.539  -4676957.954  -4794962.575
10 0 59916  83742.000000  0    1621548.359  -5291470.931  -4110223.883
10 0 59916  83862.000000  0    1572930.226  -5813392.633  -3353456.864
10 0 59916  83982.000000  0    1488676.834  -6232888.032  -2537861.236
10 0 59916  84102.000000  0    1372092.682  -6541946.630  -1677700.717
10 0 59916  84222.000000  0    1227175.111  -6734547.156   -788054.136
10 0 59916  84342.000000  0    1058509.372  -6806785.751    115452.181
10 0 59916  84462.000000  0     871151.572  -6756962.283   1016925.156
10 0 59916  84582.000000  0     670500.661  -6585623.687   1900492.421
10 0 59916  84702.000000  0     462163.872  -6295561.921   2750591.896
10 0 59916  84822.000000  0     251818.021  -5891764.606   3552255.283
10 0 59916  84942.000000  0      45069.999  -5381321.460   4291376.951
10 0 59916  85062.000000  0    -152678.701  -4773291.611   4954965.043
10 0 59916  85182.000000  0    -336360.516  -4078532.665   5531370.532
10 0 59916  85302.000000  0    -501360.034  -3309497.146   6010489.911
10 0 59916  85422.000000  0    -643619.982  -2479999.212   6383937.802
10 0 59916  85542.000000  0    -759732.673  -1604960.294   6645185.623
10 0 59916  85662.000000  0    -847015.272   -700138.632   6789669.763
10 0 59916  85782.000000  0    -903568.057    218155.921   6814867.706
10 0 59916  85902.000000  0    -928314.226   1133356.221   6720339.387
10 0 59916  86022.000000  0    -921019.774   2028936.229   6507734.235
10 0 59916  86142.000000  0    -882294.026   2888708.806   6180764.135
10 0 59916  86262.000000  0    -813571.224   3697118.769   5745142.922
10 0 59916  86382.000000  0    -717073.006   4439526.987   5208491.689
10 0 59917    102.000000  0    -595752.324   5102479.953   4580211.982
10 0 59917    222.000000  0    -453220.236   5673962.220   3871326.184
10 0 59917    342.000000  0    -293655.841   6143621.177   3094287.274
10 0 59917    462.000000  0    -121703.795   6502966.840   2262764.241
10 0 59917    582.000000  0      57641.524   6745537.273   1391396.146
10 0 59917    702.000000  0     239162.107   6867020.845    495528.870
10 0 59917    822.000000  0     417547.894   6865337.992   -409062.033
10 0 59917    942.000000  0     587531.656   6740678.007  -1306458.467
10 0 59917   1062.000000  0     744021.621   6495488.575  -2180888.741
10 0 59917   1182.000000  0     882229.286   6134421.102  -3017011.367
10 0 59917   1302.000000  0     997790.497   5664233.157  -3800188.593
10 0 59917   1422.000000  0    1086876.395   5093650.538  -4516744.199
10 0 59917   1542.000000  0    1146291.479   4433192.755  -5154200.016
10 0 59917   1662.000000  0    1173556.670   3694967.458  -5701486.634
10 0 59917   1782.000000  0    1166975.262   2892439.717  -6149126.847
10 0 59917   1902.000000  0    1125681.096   2040179.713  -6489388.895
10 0 59917   2022.000000  0    1049668.123   1153596.596  -6716407.683
10 0 59917   2142.000000  0     939801.192    248662.152  -6826276.684
10 0 59917   2262.000000  0     797808.149   -658372.755  -6817107.854
10 0 59917   2382.000000  0     626252.724  -1551263.999  -6689059.286
10 0 59917   2502.000000  0     428489.526  -2414056.604  -6444331.560
10 0 59917   2622.000000  0     208601.520  -3231362.619  -6087136.168
10 0 59917   2742.000000  0     -28680.526  -3988633.326  -5623631.283
10 0 59917   2862.000000  0    -278073.522  -4672417.310  -5061825.072
10 0 59917   2982.000000  0    -533852.174  -5270602.715  -4411449.177
10 0 59917   3102.000000  0    -789972.388  -5772639.275  -3683801.149
10 0 59917   3222.000000  0   -1040205.142  -6169734.659  -2891556.905
10 0 59917   3342.000000  0   -1278278.039  -6455020.295  -2048556.155
10 0 59917   3462.000000  0   -1498021.681  -6623683.508  -1169563.076
10 0 59917   3582.000000  0   -1693516.838  -6673060.491   -270005.500
10 0 59917   3702.000000  0   -1859238.992  -6602686.878    634301.255
10 0 59917   3822.000000  0   -1990196.836  -6414304.426   1527440.023
10 0 59917   3942.000000  0   -2082060.723  -6111823.067   2393681.005
10 0 59917   4062.000000  0   -2131277.336  -5701238.786   3217768.002
10 0 59917   4182.000000  0   -2135167.386  -5190509.407   3985194.427
10 0 59917   4302.000000  0   -2092004.194  -4589392.685   4682463.079
10 0 59917   4422.000000  0   -2001071.878  -3909251.700   5297325.052
10 0 59917   4542.000000  0   -1862702.146  -3162830.855   5818994.924
10 0 59917   4662.000000  0   -1678287.322  -2364007.795   6238335.829
10 0 59917   4782.000000  0   -1450270.293  -1527529.932   6548013.180
10 0 59917   4902.000000  0   -1182112.984   -668738.697   6742617.461
10 0 59917   5022.000000  0    -878244.174    196714.317   6818752.229
10 0 59917   5142.000000  0    -543986.682   1053151.628   6775089.426
10 0 59917   5262.000000  0    -185463.998   1885153.403   6612391.793
10 0 59917   5382.000000  0     190511.818   2677834.849   6333500.276
10 0 59917   5502.000000  0     576568.715   3417112.348   5943287.197
10 0 59917   5622.000000  0     964917.355   4089955.700   5448576.574
10 0 59917   5742.000000  0    1347506.319   4684621.975   4858030.623
10 0 59917   5862.000000  0    1716187.094   5190867.136   4182003.686
10 0 59917   5982.000000  0    2062885.494   5600129.466   3432365.488
10 0 59917   6102.000000  0    2379777.287   5905684.166   2622296.823
10 0 59917   6222.000000  0    2659461.196   6102763.873   1766055.129
10 0 59917   6342.000000  0    2895127.711   6188638.706    878718.346
10 0 59917   6462.000000  0    3080716.356   6162654.760    -24087.732
10 0 59917   6582.000000  0    3211059.651   6026231.630   -926472.231
10 0 59917   6702.000000  0    3282010.097   5782817.813  -1812567.303
10 0 59917   6822.000000  0    3290546.229   5437806.119  -2666814.534
10 0 59917   6942.000000  0    3234855.679   4998410.611  -3474244.624
10 0 59917   7062.000000  0    3114392.005   4473507.818  -4220742.874
10 0 59917   7182.000000  0    2929905.256   3873448.978  -4893294.411
10 0 59917   7302.000000  0    2683445.807   3209848.036  -5480206.558
10 0 59917   7422.000000  0    2378342.977   2495350.012  -5971304.244
10 0 59917   7542.000000  0    2019158.038   1743385.326  -6358096.239
10 0 59917   7662.000000  0    1611613.577    967915.814  -6633909.845
10 0 59917   7782.000000  0    1162502.088    183177.693  -6793994.953
10 0 59917   7902.000000  0     679572.771   -596575.427  -6835598.369
10 0 59917   8022.000000  0     171398.867  -1357326.400  -6758004.849
10 0 59917   8142.000000  0    -352770.564  -2085539.269  -6562546.804
10 0 59917   8262.000000  0    -883174.265  -2768393.840  -6252585.419
10 0 59917   8382.000000  0   -1409716.334  -3394008.806  -5833459.320
10 0 59917   8502.000000  0   -1922153.431  -3951647.036  -5312401.576
10 0 59917   8622.000000  0   -2410290.461  -4431902.415  -4698427.197
10 0 59917   8742.000000  0   -2864182.204  -4826865.036  -4002188.592
10 0 59917   8862.000000  0   -3274335.670  -5130259.032  -3235799.902
10 0 59917   8982.000000  0   -3631908.941  -5337551.003  -2412633.761
10 0 59917   9102.000000  0   -3928902.997  -5446026.369  -1547092.132
10 0 59917   9222.000000  0   -4158341.177  -5454830.684   -654354.278
10 0 59917   9342.000000  0   -4314430.919  -5364974.165    249893.477
10 0 59917   9462.000000  0   -4392703.565  -5179298.599   1149740.283
10 0 59917   9582.000000  0   -4390128.510  -4902406.649   2029340.030
10 0 59917   9702.000000  0   -4305197.688  -4540554.578   2873199.750
10 0 59917   9822.000000  0   -4137979.059  -4101512.489   3666460.131
10 0 59917   9942.000000  0   -3890138.050  -3594395.779   4395163.357
10 0 59917  10062.000000  0   -3564925.550  -3029471.003   5046502.257
10 0 59917  10182.000000  0   -3167134.037  -2417942.512   5609044.295
10 0 59917  10302.000000  0   -2703023.688  -1771726.397   6072929.107
10 0 59917  10422.000000  0   -2180219.867  -1103215.176   6430037.636
10 0 59917  10542.000000  0   -1607583.363   -425036.359   6674129.740
10 0 59917  10662.000000  0    -995055.571    250187.722   6800945.237
10 0 59917  10782.000000  0    -353485.547    910073.027   6808272.538
10 0 59917  10902.000000  0     305561.796   1542700.295   6695985.401
10 0 59917  11022.000000  0     970013.744   2136830.243   6466045.193
10 0 59917  11142.000000  0    1627510.372   2682103.141   6122467.948
10 0 59917  11262.000000  0    2265633.430   3169219.829   5671258.836
10 0 59917  11382.000000  0    2872141.327   3590103.397   5120314.189
10 0 59917  11502.000000  0    3435206.932   3938037.716   4479288.868
10 0 59917  11622.000000  0    3943650.314   4207777.827   3759431.117
10 0 59917  11742.000000  0    4387164.770   4395634.565   2973391.236
10 0 59917  11862.000000  0    4756532.968   4499527.339   2134997.506
10 0 59917  11982.000000  0    5043820.507   4519004.160   1259010.428
10 0 59917  12102.000000  0    5242549.570   4455228.966    360857.719
10 0 59917  12222.000000  0    5347843.606   4310935.020   -543646.478
10 0 59917  12342.000000  0    5356538.690   4090345.919  -1438589.085
10 0 59917  12462.000000  0    5267261.240   3799066.887  -2308246.006
10 0 59917  12582.000000  0    5080469.610   3443948.520  -3137364.824
10 0 59917  12702.000000  0    4798458.674   3032928.262  -3911435.939
10 0 59917  12822.000000  0    4425327.952   2574853.589  -4616947.847
99
